{
    "links": {
        "self": "http://www.neowsapp.com/rest/v1/neo/3824080?api_key=iIulBulltgU6a56xZRHN4H3l9WmuAYTsLGpBGhQ2"
    },
    "id": "3824080",
    "neo_reference_id": "3824080",
    "name": "(2018 JZ1)",
    "designation": "2018 JZ1",
    "nasa_jpl_url": "http://ssd.jpl.nasa.gov/sbdb.cgi?sstr=3824080",
    "absolute_magnitude_h": 23.7,
    "estimated_diameter": {
        "kilometers": {
            "estimated_diameter_min": 0.0483676488,
            "estimated_diameter_max": 0.1081533507
        },
        "meters": {
            "estimated_diameter_min": 48.3676488219,
            "estimated_diameter_max": 108.1533506775
        },
        "miles": {
            "estimated_diameter_min": 0.0300542543,
            "estimated_diameter_max": 0.0672033557
        },
        "feet": {
            "estimated_diameter_min": 158.6865169607,
            "estimated_diameter_max": 354.8338390368
        }
    },
    "is_potentially_hazardous_asteroid": false,
    "close_approach_data": [
        {
            "close_approach_date": "1929-11-26",
            "close_approach_date_full": "1929-Nov-26 02:49",
            "epoch_date_close_approach": -1265404260000,
            "relative_velocity": {
                "kilometers_per_second": "4.0541931095",
                "kilometers_per_hour": "14595.0951942669",
                "miles_per_hour": "9068.8245666821"
            },
            "miss_distance": {
                "astronomical": "1.2912346184",
                "lunar": "502.2902665576",
                "kilometers": "193165948.582902808",
                "miles": "120027754.6884744304"
            },
            "orbiting_body": "Juptr"
        },
        {
            "close_approach_date": "2018-05-29",
            "close_approach_date_full": "2018-May-29 08:01",
            "epoch_date_close_approach": 1527580860000,
            "relative_velocity": {
                "kilometers_per_second": "10.0411815272",
                "kilometers_per_hour": "36148.253497978",
                "miles_per_hour": "22461.1189582297"
            },
            "miss_distance": {
                "astronomical": "0.0616497098",
                "lunar": "23.9817371122",
                "kilometers": "9222665.272198126",
                "miles": "5730698.4641250988"
            },
            "orbiting_body": "Earth"
        },
        {
            "close_approach_date": "2116-04-20",
            "close_approach_date_full": "2116-Apr-20 17:20",
            "epoch_date_close_approach": 4616846400000,
            "relative_velocity": {
                "kilometers_per_second": "18.9991776852",
                "kilometers_per_hour": "68397.0396666988",
                "miles_per_hour": "42499.2605640107"
            },
            "miss_distance": {
                "astronomical": "0.3071794295",
                "lunar": "119.4927980755",
                "kilometers": "45953388.361015165",
                "miles": "28554111.455792677"
            },
            "orbiting_body": "Earth"
        }
    ],
    "orbital_data": {
        "orbit_id": "7",
        "orbit_determination_date": "2018-06-08 06:23:20",
        "first_observation_date": "2018-05-09",
        "last_observation_date": "2018-06-07",
        "data_arc_in_days": 29,
        "observations_used": 52,
        "orbit_uncertainty": "8",
        "minimum_orbit_intersection": ".0328259",
        "jupiter_tisserand_invariant": "3.238",
        "epoch_osculation": "2458251.5",
        "eccentricity": ".5805593039508785",
        "semi_major_axis": "2.420433412711207",
        "inclination": "11.45894843150542",
        "ascending_node_longitude": "53.06390499986457",
        "orbital_period": "1375.428870769518",
        "perihelion_distance": "1.015228275368139",
        "perihelion_argument": "205.4804899380468",
        "aphelion_distance": "3.825638550054274",
        "perihelion_time": "2458278.624992431549",
        "mean_anomaly": "352.9003982082372",
        "mean_motion": ".2617365446157814",
        "equinox": "J2000",
        "orbit_class": {
            "orbit_class_type": "APO",
            "orbit_class_description": "Near-Earth asteroid orbits which cross the Earth’s orbit similar to that of 1862 Apollo",
            "orbit_class_range": "a (semi-major axis) > 1.0 AU; q (perihelion) < 1.017 AU"
        }
    },
    "is_sentry_object": false
}